{"type":"FeatureCollection","attribution":"India district boundaries, udit-001/india-maps-data (commit 273a919), CC BY 4.0 — https://github.com/udit-001/india-maps-data","features":[{"type":"Feature","properties":{"st_nm":"Lakshadweep"},"geometry":{"type":"MultiPolygon","coordinates":[[[[73.0105,8.2779],[73.012,8.277],[73.0118,8.2764],[73.0105,8.2779]]],[[[73.0139,8.3021],[73.0137,8.3024],[73.0141,8.3023],[73.0139,8.3021]]],[[[73.0542,8.2734],[73.0427,8.264],[73.0178,8.2754],[73.0477,8.2755],[73.0785,8.3243],[73.0542,8.2734]]],[[[73.6312,10.0679],[73.6308,10.0679],[73.6311,10.0681],[73.6312,10.0679]]],[[[73.6305,10.0682],[73.6305,10.0679],[73.6302,10.0679],[73.6305,10.0682]]],[[[73.6319,10.0682],[73.6316,10.0682],[73.632,10.0686],[73.6319,10.0682]]],[[[73.6303,10.0682],[73.6299,10.0684],[73.6302,10.0686],[73.6303,10.0682]]],[[[73.631,10.0682],[73.6305,10.0686],[73.6317,10.0688],[73.631,10.0682]]],[[[73.6324,10.0686],[73.6321,10.0686],[73.6322,10.0689],[73.6324,10.0686]]],[[[73.6307,10.0689],[73.6304,10.0689],[73.6306,10.0691],[73.6307,10.0689]]],[[[73.632,10.0691],[73.6314,10.0691],[73.6319,10.0693],[73.632,10.0691]]],[[[73.6333,10.0693],[73.6324,10.0691],[73.6331,10.0699],[73.6333,10.0693]]],[[[73.6346,10.0716],[73.6337,10.0721],[73.6347,10.0723],[73.6346,10.0716]]],[[[73.6281,10.0738],[73.628,10.0726],[73.6263,10.0724],[73.6281,10.0738]]],[[[73.6303,10.0743],[73.6298,10.0744],[73.6305,10.0749],[73.6303,10.0743]]],[[[73.6478,10.0724],[73.6413,10.0572],[73.635,10.0713],[73.6512,10.102],[73.6478,10.0724]]],[[[73.6526,10.1087],[73.6522,10.1087],[73.6522,10.1095],[73.6526,10.1087]]],[[[72.2842,10.0412],[72.2906,10.0532],[72.2887,10.0455],[72.2842,10.0412]]],[[[73.6604,10.1543],[73.6643,10.1411],[73.6601,10.1292],[73.6604,10.1543]]],[[[72.3374,10.1053],[72.3344,10.101],[72.3361,10.1075],[72.3374,10.1053]]],[[[72.3323,10.1302],[72.3273,10.1299],[72.3281,10.1387],[72.3323,10.1302]]],[[[72.6442,10.5784],[72.6497,10.5635],[72.6172,10.5422],[72.6442,10.5784]]],[[[73.6681,10.8176],[73.7018,10.8143],[73.6718,10.8039],[73.6599,10.8109],[73.6681,10.8176]]],[[[72.1687,10.8149],[72.1688,10.8129],[72.1649,10.8129],[72.1687,10.8149]]],[[[72.2043,10.8786],[72.1701,10.8183],[72.1947,10.8714],[72.2043,10.8786]]],[[[72.2889,10.9466],[72.2896,10.9357],[72.2847,10.9375],[72.2889,10.9466]]],[[[72.3255,10.9504],[72.3154,10.9436],[72.3171,10.9497],[72.3255,10.9504]]],[[[72.3332,10.9519],[72.3315,10.9506],[72.3304,10.9516],[72.3332,10.9519]]],[[[72.3349,10.9553],[72.3339,10.9531],[72.333,10.9549],[72.3349,10.9553]]],[[[72.3353,10.9564],[72.3344,10.9564],[72.3341,10.9593],[72.3353,10.9564]]],[[[72.7203,11.1139],[72.7186,11.1273],[72.7337,11.1363],[72.7203,11.1139]]],[[[72.7621,11.1829],[72.7795,11.2426],[72.7902,11.2604],[72.7621,11.1829]]],[[[73.0083,11.4696],[72.9994,11.4983],[73.0099,11.4875],[73.0083,11.4696]]],[[[72.1904,11.599],[72.1867,11.5987],[72.1853,11.6017],[72.1904,11.599]]],[[[72.7121,11.6867],[72.7058,11.6826],[72.7166,11.7039],[72.7121,11.6867]]]]}},{"type":"Feature","properties":{"st_nm":"Puducherry"},"geometry":{"type":"MultiPolygon","coordinates":[[[[79.6797,11.8107],[79.6842,11.812],[79.6904,11.8086],[79.6904,11.8084],[79.6812,11.7963],[79.6797,11.8107]]],[[[79.7025,11.8134],[79.692,11.8141],[79.6969,11.8185],[79.7025,11.8134]]],[[[79.7975,11.8247],[79.7979,11.8336],[79.8069,11.8336],[79.7958,11.7854],[79.7719,11.7823],[79.7659,11.7918],[79.7551,11.7753],[79.7131,11.7912],[79.7244,11.8105],[79.7356,11.8094],[79.7293,11.837],[79.7377,11.8429],[79.7397,11.8423],[79.7672,11.8245],[79.7688,11.8234],[79.77,11.8226],[79.7751,11.8281],[79.7794,11.8313],[79.7975,11.8247]]],[[[79.6551,11.8406],[79.6713,11.8149],[79.6465,11.8213],[79.6468,11.8321],[79.6527,11.8412],[79.6551,11.8406]]],[[[79.699,11.8612],[79.6959,11.8603],[79.6994,11.8722],[79.699,11.8612]]],[[[79.6457,11.8769],[79.6627,11.8673],[79.6578,11.8527],[79.6269,11.8542],[79.6285,11.8699],[79.6019,11.8578],[79.5994,11.883],[79.6083,11.8771],[79.6085,11.8771],[79.6091,11.8777],[79.6232,11.8894],[79.6271,11.8873],[79.6343,11.8832],[79.6457,11.8769]]],[[[79.6846,11.9535],[79.6549,11.9537],[79.6621,11.9692],[79.682,11.9725],[79.6846,11.9535]]],[[[79.6853,11.8834],[79.674,11.8807],[79.6738,11.8917],[79.6953,11.8949],[79.6961,11.9193],[79.7186,11.9191],[79.7065,11.9136],[79.7111,11.8907],[79.7287,11.8902],[79.7407,11.9055],[79.7174,11.9291],[79.7209,11.945],[79.7096,11.9501],[79.7111,11.9331],[79.6969,11.9465],[79.6957,11.9641],[79.7151,11.9677],[79.7123,11.9865],[79.7555,12.0044],[79.7604,11.9893],[79.7418,11.9776],[79.7264,11.9857],[79.7235,11.977],[79.7446,11.9649],[79.7502,11.9199],[79.7622,11.9286],[79.7598,11.9437],[79.7846,11.9598],[79.805,11.9532],[79.8126,11.9778],[79.8405,11.9558],[79.8077,11.8366],[79.8073,11.8376],[79.8081,11.8453],[79.8038,11.8472],[79.7825,11.8559],[79.7823,11.8559],[79.7821,11.8559],[79.7813,11.8548],[79.769,11.84],[79.768,11.8402],[79.7668,11.851],[79.7641,11.876],[79.7639,11.8771],[79.7635,11.876],[79.7518,11.8484],[79.7504,11.8484],[79.75,11.8484],[79.7397,11.8648],[79.7393,11.8646],[79.7393,11.8648],[79.7211,11.8624],[79.7192,11.855],[79.7182,11.8544],[79.7174,11.8554],[79.71,11.8885],[79.71,11.8892],[79.7098,11.8892],[79.709,11.8892],[79.701,11.8892],[79.6846,11.886],[79.6853,11.8834]],[[79.795,11.8953],[79.7819,11.9023],[79.7751,11.9015],[79.7692,11.9006],[79.7737,11.8858],[79.7764,11.8767],[79.7805,11.8629],[79.7833,11.868],[79.7917,11.8845],[79.7968,11.8943],[79.795,11.8953]]],[[[79.7917,12.0228],[79.794,12.0256],[79.8055,12.0222],[79.7932,12.0201],[79.7917,12.0228]]],[[[79.6201,12.0016],[79.6277,12.0313],[79.6513,12.0224],[79.6375,11.9827],[79.6484,11.9672],[79.6427,11.9422],[79.6574,11.9481],[79.6707,11.9316],[79.6638,11.9157],[79.6486,11.9076],[79.6337,11.9019],[79.6318,11.9021],[79.6271,11.9134],[79.6232,11.9229],[79.6187,11.9341],[79.6187,11.9367],[79.6285,11.9452],[79.6171,11.9895],[79.6261,11.9997],[79.6201,12.0016]]],[[[79.7047,12.0319],[79.7027,12.0112],[79.7196,11.9923],[79.6853,11.9916],[79.6809,11.9834],[79.6738,11.995],[79.657,11.9916],[79.6613,12.0122],[79.6723,12.0097],[79.6943,12.0349],[79.7047,12.0319]]],[[[79.8405,12.0133],[79.8497,12.0519],[79.8738,12.0425],[79.8571,12.0069],[79.8405,12.0133]]],[[[79.8079,10.8788],[79.8059,10.8796],[79.8097,10.8805],[79.8079,10.8788]]],[[[79.7393,10.921],[79.7397,10.9201],[79.7389,10.9206],[79.7389,10.9208],[79.7393,10.921]]],[[[79.7217,10.9354],[79.7201,10.9361],[79.7215,10.9369],[79.7217,10.9354]]],[[[79.7244,10.9329],[79.7293,10.9341],[79.724,10.9418],[79.7326,10.9524],[79.7366,10.9573],[79.7197,10.9522],[79.7192,10.9685],[79.7446,10.9662],[79.7463,10.9564],[79.7635,10.9602],[79.7639,10.9602],[79.7553,10.98],[79.7526,10.9861],[79.7481,10.9965],[79.7469,10.9969],[79.7467,11.0005],[79.7528,11.0027],[79.7571,11.0029],[79.786,10.9974],[79.7977,10.9825],[79.8151,11.0037],[79.845,10.9957],[79.8515,10.9872],[79.8507,10.8279],[79.831,10.8274],[79.828,10.8497],[79.8079,10.8557],[79.8075,10.8654],[79.8249,10.865],[79.8112,10.8805],[79.8269,10.8843],[79.8276,10.8845],[79.7903,10.8949],[79.7837,10.8885],[79.7954,10.9028],[79.7893,10.9085],[79.7563,10.8917],[79.7624,10.9144],[79.7426,10.9216],[79.7426,10.9246],[79.7248,10.9291],[79.7244,10.9329]]],[[[75.5329,11.7065],[75.537,11.7057],[75.5421,11.6987],[75.5302,11.7021],[75.5329,11.7065]]],[[[75.5556,11.7218],[75.5366,11.7195],[75.5311,11.7084],[75.5266,11.726],[75.5417,11.7388],[75.5313,11.7587],[75.538,11.7625],[75.5556,11.7218]]],[[[82.1863,16.7371],[82.2056,16.7345],[82.225,16.7574],[82.2291,16.7568],[82.2312,16.7553],[82.2176,16.7328],[82.2697,16.7218],[82.2897,16.7267],[82.3055,16.7483],[82.3104,16.7188],[82.2668,16.6946],[82.2391,16.7163],[82.1992,16.721],[82.1912,16.7267],[82.1863,16.7371]]]]}},{"type":"Feature","properties":{"st_nm":"Chandigarh"},"geometry":{"type":"MultiPolygon","coordinates":[[[[76.8268,30.6818],[76.8078,30.6674],[76.8062,30.6677],[76.7898,30.6757],[76.7766,30.6704],[76.7641,30.6864],[76.7392,30.693],[76.7311,30.7236],[76.7052,30.743],[76.7103,30.7608],[76.7439,30.7696],[76.7717,30.795],[76.7827,30.7796],[76.7827,30.7707],[76.7878,30.7724],[76.8131,30.7802],[76.8156,30.777],[76.8163,30.7764],[76.8051,30.7652],[76.8149,30.753],[76.8266,30.7635],[76.8378,30.7544],[76.838,30.7549],[76.8315,30.7397],[76.8476,30.7308],[76.8481,30.7274],[76.8474,30.7158],[76.8252,30.6883],[76.8268,30.6818]]]]}},{"type":"Feature","properties":{"st_nm":"Dadra and Nagar Haveli and Daman and Diu"},"geometry":{"type":"MultiPolygon","coordinates":[[[[72.7326,19.4672],[72.7369,19.4659],[72.7329,19.4592],[72.7326,19.4672]]],[[[72.9629,20.3048],[72.953,20.315],[72.9617,20.3322],[72.9804,20.3242],[72.982,20.3211],[72.974,20.303],[72.9707,20.2976],[72.9629,20.3048]]],[[[72.9627,20.2086],[72.9632,20.2086],[72.9594,20.2274],[72.958,20.2341],[72.9264,20.251],[72.9137,20.2713],[72.932,20.2947],[72.9719,20.2702],[72.9721,20.2709],[72.9813,20.2898],[73.0101,20.2912],[73.0077,20.3124],[73.0171,20.309],[73.0162,20.2936],[73.0346,20.2914],[73.0426,20.3251],[73.0777,20.3228],[73.0968,20.3596],[73.1119,20.3369],[73.1015,20.3028],[73.1515,20.3173],[73.1661,20.3095],[73.1671,20.2885],[73.1581,20.2802],[73.1456,20.2865],[73.1425,20.2738],[73.098,20.2392],[73.098,20.2276],[73.0706,20.2318],[73.0655,20.2276],[73.0622,20.2249],[73.0603,20.2234],[73.052,20.2062],[73.0494,20.2006],[73.0492,20.2002],[73.0598,20.1939],[73.0643,20.16],[73.0645,20.1587],[73.0739,20.1555],[73.0796,20.1732],[73.1159,20.1522],[73.1194,20.168],[73.1421,20.1772],[73.1352,20.1993],[73.1369,20.2046],[73.1574,20.1984],[73.1685,20.2082],[73.1781,20.1926],[73.192,20.1973],[73.218,20.1859],[73.2083,20.1667],[73.2008,20.1631],[73.1899,20.1642],[73.1897,20.1576],[73.188,20.129],[73.188,20.1286],[73.2107,20.1205],[73.2107,20.0857],[73.1892,20.0773],[73.1923,20.0496],[73.1661,20.0547],[73.1371,20.086],[73.1121,20.0741],[73.1036,20.0895],[73.0643,20.0984],[73.0558,20.0989],[73.0556,20.0955],[73.0527,20.0645],[73.044,20.0661],[73.0013,20.1116],[73.0082,20.127],[73.0103,20.1317],[73.0115,20.1346],[72.9983,20.1428],[72.9919,20.1174],[72.9888,20.1165],[72.9754,20.115],[72.9665,20.1239],[72.9646,20.127],[72.9775,20.1794],[72.9617,20.1848],[72.9617,20.1874],[72.9627,20.2086]],[[72.9877,20.2155],[72.9933,20.2155],[73.0016,20.2158],[73.0039,20.2249],[73.0053,20.2305],[73.0058,20.2318],[73.0023,20.2321],[72.9839,20.2336],[72.9794,20.2341],[72.9794,20.2296],[72.9749,20.2256],[72.9794,20.222],[72.9794,20.2155],[72.9877,20.2155]]],[[[72.8865,20.4622],[72.8955,20.4442],[72.875,20.4455],[72.8573,20.4188],[72.899,20.4154],[72.9005,20.4121],[72.8828,20.3978],[72.896,20.3793],[72.896,20.3788],[72.8564,20.373],[72.8361,20.3732],[72.829,20.3688],[72.8212,20.3677],[72.8366,20.4533],[72.8552,20.4674],[72.8865,20.4622]]],[[[70.9201,20.7426],[70.9215,20.742],[70.9307,20.7368],[70.9385,20.7324],[70.9604,20.7366],[70.9807,20.7226],[70.981,20.7228],[70.9963,20.7386],[70.9996,20.7417],[71.0074,20.7373],[70.9876,20.7226],[70.997,20.7134],[70.9769,20.702],[70.9291,20.7121],[70.8994,20.6996],[70.8761,20.7092],[70.885,20.7257],[70.9157,20.7328],[70.9201,20.7426]]],[[[71.1521,20.7591],[71.1514,20.7634],[71.1537,20.76],[71.1521,20.7591]]]]}},{"type":"Feature","properties":{"st_nm":"Andaman & Nicobar"},"geometry":{"type":"MultiPolygon","coordinates":[[[[92.7557,12.1752],[92.7554,12.1771],[92.7544,12.1811],[92.7622,12.179],[92.7583,12.1648],[92.7557,12.1752]]],[[[92.7288,12.1846],[92.724,12.1851],[92.7292,12.1894],[92.7288,12.1846]]],[[[92.9349,12.2241],[92.9321,12.1963],[92.9239,12.2153],[92.9349,12.2241]]],[[[92.7346,12.2398],[92.7294,12.2147],[92.739,12.2233],[92.7422,12.2048],[92.7387,12.2363],[92.7537,12.2305],[92.7524,12.2179],[92.7608,12.2289],[92.7628,12.183],[92.7593,12.1928],[92.7463,12.1803],[92.7324,12.1846],[92.7283,12.1979],[92.7221,12.1886],[92.7207,12.2334],[92.7346,12.2398]]],[[[92.698,12.2438],[92.6947,12.2467],[92.6963,12.2505],[92.698,12.2438]]],[[[92.7227,12.2547],[92.7212,12.2566],[92.7238,12.2563],[92.7227,12.2547]]],[[[92.8658,12.2355],[92.8604,12.2427],[92.8627,12.2481],[92.8575,12.2449],[92.8781,12.2086],[92.8695,12.2457],[92.877,12.2494],[92.8812,12.2417],[92.8814,12.2419],[92.8814,12.2414],[92.8831,12.2385],[92.8866,12.2526],[92.8996,12.2561],[92.9143,12.2201],[92.8898,12.2283],[92.8785,12.2081],[92.884,12.1982],[92.8746,12.1918],[92.8526,12.2048],[92.8274,12.2032],[92.8328,12.2153],[92.8261,12.2032],[92.8441,12.2011],[92.84,12.1854],[92.8569,12.1872],[92.8551,12.1587],[92.8439,12.1475],[92.8358,12.1664],[92.8226,12.1667],[92.8281,12.1566],[92.8172,12.1259],[92.8025,12.128],[92.8179,12.1142],[92.8146,12.1062],[92.7838,12.1064],[92.8018,12.0928],[92.7854,12.072],[92.781,12.0806],[92.7632,12.0638],[92.7593,12.0784],[92.7518,12.0744],[92.7604,12.0939],[92.7455,12.0747],[92.7376,12.0987],[92.7572,12.1544],[92.7661,12.1518],[92.7583,12.1598],[92.7699,12.1835],[92.7648,12.2142],[92.7747,12.2427],[92.768,12.2513],[92.7615,12.2334],[92.7598,12.2411],[92.7511,12.2329],[92.7409,12.2457],[92.7491,12.2742],[92.763,12.2627],[92.7738,12.2806],[92.7778,12.2726],[92.7786,12.2835],[92.7875,12.2803],[92.7751,12.3014],[92.7667,12.2974],[92.7706,12.3131],[92.7947,12.3038],[92.8101,12.3131],[92.8324,12.3009],[92.8319,12.2923],[92.8467,12.3038],[92.8536,12.2814],[92.8487,12.3022],[92.872,12.3019],[92.8632,12.287],[92.8701,12.295],[92.8818,12.2627],[92.8911,12.2667],[92.8746,12.2507],[92.8617,12.2638],[92.8688,12.2518],[92.8642,12.2489],[92.8658,12.2355]]],[[[92.8803,12.2454],[92.8785,12.2507],[92.881,12.2483],[92.8803,12.2454]]],[[[92.8996,12.2587],[92.8983,12.2595],[92.8992,12.2627],[92.8996,12.2587]]],[[[92.7474,12.2833],[92.7325,12.2467],[92.739,12.2835],[92.7474,12.2833]]],[[[92.735,12.2809],[92.7337,12.2883],[92.7361,12.2931],[92.735,12.2809]]],[[[92.7535,12.2934],[92.7511,12.2929],[92.7526,12.2947],[92.7535,12.2934]]],[[[92.7661,12.2726],[92.7635,12.2654],[92.752,12.2779],[92.7609,12.2942],[92.7661,12.2726]]],[[[92.7682,12.2889],[92.7658,12.2897],[92.7697,12.2953],[92.7682,12.2889]]],[[[92.7095,12.2977],[92.7229,12.2913],[92.7097,12.2299],[92.6988,12.2745],[92.7034,12.3001],[92.7095,12.2977]]],[[[92.7637,12.2969],[92.7624,12.2977],[92.7647,12.2995],[92.7637,12.2969]]],[[[92.8764,12.2942],[92.8764,12.2969],[92.8786,12.2982],[92.8764,12.2942]]],[[[92.8651,12.3062],[92.8653,12.3041],[92.8632,12.3033],[92.8651,12.3062]]],[[[92.9343,12.3027],[92.941,12.2766],[92.9217,12.2294],[92.9197,12.2694],[92.9111,12.2633],[92.9135,12.2737],[92.9002,12.2718],[92.9007,12.2883],[92.9122,12.2929],[92.9273,12.2782],[92.9332,12.311],[92.9343,12.3027]]],[[[92.9113,12.3323],[92.91,12.3337],[92.9106,12.3358],[92.9113,12.3323]]],[[[92.8733,12.3307],[92.8998,12.3238],[92.858,12.3142],[92.8578,12.3182],[92.8311,12.303],[92.8096,12.3158],[92.7942,12.3065],[92.7784,12.3131],[92.7702,12.3339],[92.7635,12.3019],[92.7647,12.3225],[92.7541,12.2966],[92.7192,12.3003],[92.7086,12.3299],[92.6991,12.3281],[92.7054,12.4494],[92.6982,12.4683],[92.708,12.4926],[92.693,12.5161],[92.7002,12.5161],[92.7041,12.5443],[92.7125,12.5446],[92.7071,12.5942],[92.6837,12.6091],[92.7017,12.6131],[92.7023,12.6049],[92.7177,12.6438],[92.7205,12.6265],[92.7351,12.639],[92.7325,12.6571],[92.752,12.6723],[92.773,12.6707],[92.7782,12.6414],[92.7617,12.6249],[92.7782,12.6382],[92.7788,12.5801],[92.7801,12.6545],[92.799,12.6614],[92.7867,12.667],[92.7968,12.6753],[92.7765,12.7174],[92.7795,12.7289],[92.7749,12.7174],[92.7828,12.6929],[92.7682,12.6731],[92.7318,12.675],[92.7275,12.6955],[92.7444,12.6993],[92.7385,12.7177],[92.7455,12.723],[92.7294,12.7444],[92.7197,12.7905],[92.7309,12.7977],[92.7374,12.7793],[92.7387,12.791],[92.7309,12.802],[92.7199,12.7977],[92.722,12.826],[92.7303,12.8364],[92.7374,12.8046],[92.7389,12.8372],[92.7424,12.8209],[92.7428,12.8393],[92.7557,12.8473],[92.7628,12.8353],[92.7619,12.8396],[92.7635,12.8433],[92.7596,12.8598],[92.7624,12.8524],[92.7637,12.8438],[92.766,12.8489],[92.7725,12.8428],[92.7828,12.7633],[92.7851,12.7758],[92.7834,12.7758],[92.7808,12.8078],[92.7892,12.8148],[92.7918,12.7937],[92.7914,12.811],[92.7979,12.8132],[92.7871,12.8153],[92.7886,12.8289],[92.7814,12.8097],[92.7814,12.8278],[92.7673,12.8518],[92.7689,12.8633],[92.7797,12.8593],[92.7814,12.8436],[92.7814,12.8598],[92.789,12.8494],[92.7934,12.8614],[92.7923,12.8636],[92.8044,12.8609],[92.7918,12.8646],[92.7899,12.8886],[92.7879,12.8836],[92.7823,12.8932],[92.791,12.8913],[92.7903,12.8897],[92.8218,12.8961],[92.8293,12.8846],[92.8406,12.8908],[92.8406,12.8926],[92.8285,12.8865],[92.8283,12.899],[92.8042,12.9004],[92.8094,12.9092],[92.8007,12.9001],[92.7919,12.9305],[92.8007,12.9521],[92.7921,12.9508],[92.7895,12.962],[92.799,12.9918],[92.8113,12.9718],[92.8151,12.987],[92.8068,12.999],[92.8294,13.0014],[92.8231,13.0108],[92.8369,13.0233],[92.8203,13.0124],[92.8126,13.022],[92.814,13.0076],[92.7877,13.0196],[92.7921,13.0478],[92.799,13.0436],[92.7925,13.0908],[92.814,13.0724],[92.8066,13.0996],[92.8203,13.0913],[92.8211,13.1118],[92.8291,13.1089],[92.8094,13.127],[92.8228,13.1342],[92.8471,13.1182],[92.8385,13.135],[92.843,13.1422],[92.8085,13.1534],[92.8144,13.1742],[92.8241,13.1692],[92.8276,13.174],[92.8491,13.1612],[92.8177,13.1844],[92.8322,13.2145],[92.8231,13.2169],[92.8306,13.2428],[92.8502,13.2364],[92.8515,13.2612],[92.8378,13.2615],[92.8215,13.2796],[92.8235,13.2884],[92.8382,13.2879],[92.8415,13.3015],[92.8224,13.3113],[92.8302,13.3148],[92.8382,13.3745],[92.8512,13.3708],[92.851,13.3753],[92.8694,13.3911],[92.8413,13.3916],[92.8419,13.4031],[92.8484,13.4116],[92.8671,13.4009],[92.8708,13.4127],[92.8747,13.4028],[92.8816,13.4025],[92.8695,13.4244],[92.8868,13.4271],[92.8725,13.4471],[92.8707,13.4724],[92.894,13.4735],[92.9044,13.4969],[92.9176,13.5009],[92.9315,13.4812],[92.9208,13.4716],[92.9312,13.4716],[92.9332,13.4991],[92.9148,13.5335],[92.9456,13.5316],[92.9661,13.5441],[92.9722,13.5295],[92.9844,13.5273],[92.9874,13.5737],[93.0128,13.5393],[93.0153,13.5708],[93.0266,13.5788],[93.0297,13.5684],[93.0433,13.5292],[93.0394,13.4921],[93.0314,13.4649],[93.0184,13.4663],[93.0167,13.4625],[93.0171,13.4631],[93.031,13.4572],[93.0335,13.4356],[92.9915,13.4383],[92.9887,13.4276],[92.9991,13.4361],[93.0078,13.4289],[93.0077,13.4332],[93.0381,13.4276],[93.0336,13.4177],[93.0444,13.4033],[93.0604,13.4209],[93.0574,13.3967],[93.0684,13.4071],[93.0674,13.3972],[93.0453,13.3772],[93.0346,13.382],[93.0375,13.3756],[93.0247,13.3732],[92.9987,13.3959],[93.0138,13.3708],[93.0398,13.3689],[93.0242,13.3577],[93.0394,13.3575],[93.0316,13.3452],[93.0026,13.3545],[92.9844,13.3281],[92.9752,13.3516],[92.9698,13.3476],[92.9726,13.3596],[92.9495,13.3617],[92.9616,13.3553],[92.9547,13.3444],[92.9451,13.3513],[92.9598,13.3257],[92.9642,13.3287],[92.9909,13.3092],[92.9887,13.3172],[92.9967,13.3151],[92.9935,13.3012],[92.9826,13.2991],[92.9906,13.2921],[92.9737,13.282],[92.993,13.2919],[93.0015,13.2652],[93,13.2884],[92.9861,13.2993],[92.9974,13.2948],[93.0008,13.3012],[92.9963,13.3004],[93.0077,13.3209],[93.0047,13.3065],[93.0125,13.3031],[93.0034,13.3015],[93.0073,13.2921],[93.0093,13.3007],[93.0201,13.2977],[93.0117,13.2956],[93.0108,13.2769],[93.0283,13.2812],[93.0359,13.2631],[93.0325,13.2759],[93.0451,13.282],[93.0433,13.2545],[93.0645,13.2724],[93.0309,13.1782],[93.0333,13.082],[93.0173,13.0729],[93.0286,13.067],[93.0021,13.0289],[92.9941,13.0358],[92.9818,13.0252],[92.964,13.0385],[92.9746,13.0145],[92.9594,13.0158],[92.933,13.0465],[92.9482,13.0516],[92.9399,13.0582],[92.9466,13.0692],[92.9566,13.0657],[92.9559,13.0729],[92.9371,13.07],[92.9447,13.1225],[92.939,13.1044],[92.9334,13.1094],[92.9341,13.0622],[92.925,13.0622],[92.9286,13.0726],[92.9217,13.0569],[92.8985,13.0958],[92.887,13.0934],[92.8883,13.1054],[92.8853,13.0924],[92.8981,13.0937],[92.9119,13.067],[92.9004,13.0574],[92.9122,13.0548],[92.8952,13.0182],[92.902,13.022],[92.9061,13.0044],[92.894,13.0113],[92.9082,12.9964],[92.9132,13.0014],[92.9133,12.9841],[92.9297,12.9897],[92.9241,12.9764],[92.9367,12.9748],[92.9096,12.9473],[92.9096,12.9777],[92.8955,12.9958],[92.8855,12.9822],[92.8844,12.9926],[92.8699,12.9348],[92.8539,12.9401],[92.856,12.9356],[92.8426,12.9334],[92.8558,12.9337],[92.8586,12.9177],[92.8473,12.9124],[92.858,12.9129],[92.8578,12.9014],[92.8751,12.906],[92.8729,12.8876],[92.8957,12.898],[92.8966,12.927],[92.9011,12.9108],[92.9221,12.9156],[92.9057,12.8868],[92.9241,12.8838],[92.9258,12.8585],[92.9397,12.8553],[92.9208,12.8305],[92.9364,12.8204],[92.9321,12.8337],[92.9462,12.8372],[92.9521,12.8081],[92.9262,12.7748],[92.9479,12.7702],[92.9676,12.7401],[92.9655,12.7182],[92.9792,12.7097],[92.9651,12.7121],[92.9564,12.6971],[92.9648,12.6939],[92.9562,12.6249],[92.941,12.6265],[92.9529,12.6001],[92.9566,12.6201],[92.954,12.5721],[92.962,12.5729],[92.9737,12.5427],[92.9631,12.5137],[92.9494,12.5059],[92.9685,12.4966],[92.9594,12.4867],[92.9456,12.4998],[92.9362,12.4817],[92.9269,12.4905],[92.9323,12.4678],[92.9208,12.4662],[92.9172,12.4766],[92.9152,12.4769],[92.9213,12.4651],[92.9573,12.4731],[92.9377,12.4483],[92.9169,12.4427],[92.9122,12.4507],[92.9106,12.4446],[92.9223,12.4353],[92.9104,12.4062],[92.8968,12.4387],[92.8842,12.4419],[92.8937,12.4489],[92.877,12.4451],[92.8861,12.4566],[92.8799,12.4715],[92.8851,12.4566],[92.8755,12.4467],[92.8716,12.4582],[92.8686,12.4462],[92.8554,12.4569],[92.8554,12.4641],[92.8636,12.4593],[92.8543,12.4718],[92.8532,12.4577],[92.8354,12.5014],[92.8374,12.4934],[92.8222,12.5003],[92.8335,12.4886],[92.8337,12.4886],[92.8339,12.4883],[92.8354,12.4867],[92.8345,12.4867],[92.8402,12.4715],[92.8348,12.4793],[92.8391,12.4646],[92.8833,12.4294],[92.8738,12.4137],[92.8593,12.4369],[92.8591,12.4243],[92.8454,12.4235],[92.8395,12.4361],[92.8352,12.431],[92.8213,12.4342],[92.8105,12.443],[92.8155,12.4547],[92.81,12.443],[92.8192,12.4353],[92.7957,12.4382],[92.7994,12.4649],[92.7864,12.4841],[92.7906,12.4691],[92.7715,12.4713],[92.781,12.4686],[92.7814,12.4694],[92.7979,12.4643],[92.7869,12.4371],[92.8294,12.4283],[92.8265,12.4193],[92.8148,12.4251],[92.8337,12.4107],[92.8155,12.4171],[92.799,12.4009],[92.8155,12.4166],[92.8382,12.4089],[92.8372,12.3987],[92.8332,12.3998],[92.838,12.3942],[92.8293,12.3921],[92.8413,12.3915],[92.8228,12.3745],[92.8421,12.3921],[92.8591,12.3705],[92.8443,12.3633],[92.8831,12.3571],[92.8987,12.3339],[92.8792,12.3451],[92.8731,12.3353],[92.8864,12.335],[92.8733,12.3307]]],[[[92.905,12.3387],[92.9037,12.3411],[92.9052,12.3401],[92.905,12.3387]]],[[[92.9145,12.3558],[92.9095,12.3382],[92.9089,12.3507],[92.9145,12.3558]]],[[[92.8874,12.4083],[92.8931,12.3998],[92.8836,12.3766],[92.8437,12.3955],[92.8508,12.4086],[92.8807,12.3985],[92.8874,12.4083]]],[[[92.8983,12.4097],[92.8966,12.4097],[92.8974,12.4121],[92.8983,12.4097]]],[[[92.8445,12.415],[92.8432,12.4182],[92.8454,12.4169],[92.8445,12.415]]],[[[92.8619,12.4129],[92.8577,12.4171],[92.8673,12.4206],[92.8619,12.4129]]],[[[92.8359,12.4222],[92.8417,12.4161],[92.8289,12.4262],[92.8359,12.4222]]],[[[92.9028,12.4217],[92.8981,12.4219],[92.8983,12.4257],[92.9028,12.4217]]],[[[92.9544,12.4345],[92.9579,12.4179],[92.9432,12.4043],[92.9299,12.3587],[92.9176,12.3742],[92.9276,12.3862],[92.9247,12.4043],[92.9364,12.4217],[92.9469,12.4155],[92.9544,12.4345]]],[[[92.6765,12.5409],[92.6841,12.5395],[92.677,12.5219],[92.6679,12.5337],[92.6765,12.5409]]],[[[92.7014,12.6387],[92.7002,12.6395],[92.7014,12.6409],[92.7014,12.6387]]],[[[92.726,12.6547],[92.7246,12.6542],[92.7249,12.6555],[92.726,12.6547]]],[[[92.7129,12.6931],[92.7105,12.6803],[92.7082,12.6921],[92.7129,12.6931]]],[[[92.7223,12.6929],[92.7164,12.6859],[92.7194,12.6966],[92.7223,12.6929]]],[[[92.724,12.7361],[92.7286,12.7308],[92.727,12.7273],[92.724,12.7361]]],[[[92.6542,12.7705],[92.6536,12.7718],[92.6553,12.7742],[92.6542,12.7705]]],[[[92.7207,12.779],[92.7236,12.7622],[92.7162,12.7884],[92.7207,12.779]]],[[[92.7073,12.8302],[92.711,12.7774],[92.7246,12.7486],[92.7169,12.7564],[92.7164,12.7193],[92.7071,12.7318],[92.7082,12.7748],[92.6934,12.7977],[92.7073,12.8302]]],[[[92.7259,12.8348],[92.7236,12.8324],[92.7262,12.839],[92.7259,12.8348]]],[[[92.7294,12.8569],[92.7305,12.8564],[92.7285,12.855],[92.7294,12.8569]]],[[[92.726,12.8654],[92.711,12.8321],[92.7132,12.8558],[92.726,12.8654]]],[[[92.765,12.8702],[92.7632,12.8558],[92.7598,12.8686],[92.765,12.8702]]],[[[92.7502,12.891],[92.7492,12.8974],[92.7522,12.8937],[92.7502,12.891]]],[[[92.892,12.8972],[92.8905,12.8974],[92.8913,12.8993],[92.892,12.8972]]],[[[92.7561,12.9022],[92.752,12.8897],[92.7539,12.9148],[92.7561,12.9022]]],[[[92.7669,12.9164],[92.7661,12.9174],[92.7669,12.918],[92.7669,12.9164]]],[[[92.791,12.9156],[92.8001,12.8977],[92.7914,12.8921],[92.7734,12.9116],[92.791,12.9156]]],[[[92.8638,12.9132],[92.8627,12.914],[92.8627,12.9145],[92.8638,12.9132]]],[[[92.7641,12.9182],[92.7611,12.922],[92.7654,12.9265],[92.7641,12.9182]]],[[[92.9096,12.9142],[92.9082,12.9145],[92.9106,12.9166],[92.9096,12.9142]]],[[[92.9379,12.918],[92.9338,12.911],[92.9288,12.9169],[92.9379,12.918]]],[[[92.7721,12.9326],[92.7754,12.9276],[92.7717,12.9177],[92.7721,12.9326]]],[[[92.7645,12.9348],[92.763,12.9257],[92.7589,12.9353],[92.7645,12.9348]]],[[[92.8645,12.931],[92.8721,12.9284],[92.8721,12.9169],[92.864,12.918],[92.8645,12.931]]],[[[92.67,12.9478],[92.67,12.9481],[92.6707,12.9484],[92.67,12.9478]]],[[[92.6704,12.9497],[92.6717,12.9486],[92.6692,12.9489],[92.6704,12.9497]]],[[[92.6754,12.9492],[92.6718,12.9489],[92.6744,12.95],[92.6754,12.9492]]],[[[92.667,12.9513],[92.6681,12.9497],[92.6661,12.9502],[92.667,12.9513]]],[[[92.6674,12.9524],[92.6679,12.9516],[92.6668,12.9518],[92.6674,12.9524]]],[[[92.6705,12.9518],[92.6707,12.9502],[92.6687,12.9505],[92.6705,12.9518]]],[[[92.6691,12.9524],[92.6687,12.9529],[92.6692,12.9534],[92.6691,12.9524]]],[[[92.8909,12.938],[92.8877,12.9345],[92.8888,12.938],[92.8909,12.938]]],[[[92.6691,12.9542],[92.6665,12.9532],[92.6685,12.9561],[92.6691,12.9542]]],[[[92.9624,12.9478],[92.9692,12.9454],[92.9499,12.9406],[92.9624,12.9478]]],[[[92.6945,12.9916],[92.719,12.9812],[92.7095,12.9462],[92.7212,12.9446],[92.7138,12.923],[92.7205,12.8897],[92.709,12.8825],[92.7184,12.8756],[92.6997,12.8409],[92.6709,12.8377],[92.6743,12.8228],[92.6834,12.83],[92.6878,12.8172],[92.6743,12.8081],[92.6672,12.783],[92.6468,12.862],[92.6639,12.882],[92.6787,12.9422],[92.6702,12.966],[92.6945,12.9916]]],[[[93.0052,12.9969],[92.9694,12.9625],[92.9863,12.9566],[92.9781,12.9332],[92.9709,12.9553],[92.9542,12.959],[92.9531,12.9676],[92.9644,12.9692],[92.9508,12.9806],[92.9598,12.9889],[92.9716,12.9665],[92.9882,12.9849],[92.9844,12.9942],[93.0052,12.9969]]],[[[92.9865,12.999],[92.9856,13.0004],[92.9876,13.0012],[92.9865,12.999]]],[[[92.9284,13.0238],[92.9388,13.0252],[92.9421,12.9972],[92.9165,13.0078],[92.9211,13.0289],[92.9284,13.0238]]],[[[92.9171,13.0401],[92.9132,13.0433],[92.9159,13.0484],[92.9171,13.0401]]],[[[92.9315,13.0497],[92.931,13.0534],[92.9323,13.0518],[92.9315,13.0497]]],[[[92.9159,13.058],[92.9133,13.0612],[92.9146,13.0633],[92.9159,13.058]]],[[[92.9139,13.0628],[92.9124,13.0638],[92.9128,13.0676],[92.9139,13.0628]]],[[[92.7279,13.091],[92.7279,13.0934],[92.7301,13.0956],[92.7279,13.091]]],[[[92.7186,13.0985],[92.6999,13.071],[92.6952,13.0964],[92.7186,13.0985]]],[[[92.7947,13.1686],[92.7931,13.171],[92.7955,13.1705],[92.7947,13.1686]]],[[[93.0589,13.2225],[93.0572,13.2238],[93.0568,13.2265],[93.0589,13.2225]]],[[[93.0602,13.2249],[93.0594,13.2284],[93.0607,13.2278],[93.0602,13.2249]]],[[[93.0739,13.3023],[93.0773,13.3009],[93.0706,13.2983],[93.0739,13.3023]]],[[[93.0225,13.3289],[93.0208,13.3041],[93.0136,13.3089],[93.0225,13.3289]]],[[[92.9657,13.3327],[92.9644,13.3359],[92.9674,13.3377],[92.9657,13.3327]]],[[[93.0067,13.3356],[93.0067,13.3369],[93.008,13.3369],[93.0067,13.3356]]],[[[93.0143,13.3391],[93.0125,13.3375],[93.013,13.3391],[93.0143,13.3391]]],[[[93.0182,13.3455],[93.0171,13.3367],[93.0153,13.3428],[93.0182,13.3455]]],[[[93.0763,13.3641],[93.0728,13.3652],[93.0743,13.366],[93.0763,13.3641]]],[[[93.0806,13.3679],[93.0797,13.3687],[93.0808,13.3695],[93.0806,13.3679]]],[[[93.0782,13.3775],[93.0791,13.3767],[93.0784,13.3767],[93.0782,13.3775]]],[[[93.055,13.3788],[93.0695,13.3479],[93.0886,13.3361],[93.0741,13.3297],[93.0639,13.3044],[93.0591,13.33],[93.0387,13.3231],[93.0455,13.3484],[93.0381,13.362],[93.0494,13.3655],[93.0361,13.3721],[93.055,13.3788]]],[[[93.0609,13.3839],[93.06,13.3852],[93.0624,13.3865],[93.0609,13.3839]]],[[[92.8129,13.4185],[92.8176,13.4167],[92.8133,13.4039],[92.8129,13.4185]]],[[[93.0895,13.4103],[93.086,13.4161],[93.0919,13.4199],[93.0895,13.4103]]],[[[93.0914,13.4116],[93.0936,13.4199],[93.0942,13.4161],[93.0914,13.4116]]],[[[92.8426,13.4359],[92.8341,13.4207],[92.8216,13.4215],[92.8246,13.4391],[92.8426,13.4359]]],[[[93.0713,13.4308],[93.0687,13.4132],[93.0661,13.4228],[93.0713,13.4308]]],[[[93.0763,13.4335],[93.0771,13.4332],[93.0758,13.4329],[93.0763,13.4335]]],[[[93.0955,13.438],[93.102,13.4305],[93.0968,13.4319],[93.0955,13.438]]],[[[92.8695,13.5129],[92.8708,13.5023],[92.8655,13.5052],[92.8695,13.5129]]],[[[92.9178,13.5116],[92.9132,13.5073],[92.9172,13.5156],[92.9178,13.5116]]],[[[92.9052,13.5308],[92.9061,13.5372],[92.9115,13.5343],[92.9052,13.5308]]],[[[92.8742,13.5407],[92.8768,13.538],[92.8747,13.5356],[92.8742,13.5407]]],[[[93.0526,13.5601],[93.0511,13.5644],[93.0554,13.5663],[93.0526,13.5601]]],[[[93.0006,13.5689],[92.9976,13.5703],[92.9999,13.5727],[93.0006,13.5689]]],[[[92.9017,13.6007],[92.8836,13.5751],[92.8896,13.598],[92.9017,13.6007]]],[[[93.0659,13.6521],[93.0457,13.6215],[93.0424,13.638],[93.0561,13.654],[93.0659,13.6521]]],[[[93.0188,13.6711],[93.0277,13.6287],[93.0121,13.6492],[93,13.6532],[92.9856,13.6425],[92.9761,13.6537],[92.9835,13.6497],[92.9833,13.6633],[92.9948,13.6649],[93.0115,13.6569],[93.0182,13.6692],[93.0073,13.6679],[93.0188,13.6711]]],[[[92.5205,10.8978],[92.559,10.8629],[92.5593,10.8154],[92.5864,10.7877],[92.5826,10.7448],[92.597,10.6813],[92.5788,10.6816],[92.5822,10.6584],[92.5521,10.6405],[92.5393,10.6109],[92.5415,10.5949],[92.5684,10.5783],[92.543,10.5514],[92.5311,10.5205],[92.5131,10.5141],[92.4819,10.5197],[92.4333,10.5509],[92.3886,10.533],[92.383,10.5426],[92.4205,10.6157],[92.3969,10.668],[92.3834,10.6712],[92.3784,10.7826],[92.385,10.792],[92.3956,10.78],[92.409,10.7856],[92.4274,10.824],[92.4637,10.8384],[92.458,10.8624],[92.4663,10.8573],[92.4927,10.8901],[92.5205,10.8978]]],[[[92.6134,10.9277],[92.6046,10.9376],[92.6182,10.932],[92.6134,10.9277]]],[[[92.2221,10.9845],[92.2133,10.9757],[92.2109,10.9813],[92.2221,10.9845]]],[[[92.6611,10.9821],[92.6585,10.9898],[92.6659,10.992],[92.6611,10.9821]]],[[[92.7229,11.141],[92.7216,11.1434],[92.724,11.144],[92.7229,11.141]]],[[[92.7329,11.1456],[92.7255,11.1453],[92.7307,11.1493],[92.7329,11.1456]]],[[[92.6763,11.1832],[92.6754,11.1776],[92.6741,11.1901],[92.6763,11.1832]]],[[[92.6913,11.2435],[92.6921,11.2808],[92.7045,11.2899],[92.7047,11.264],[92.6913,11.2435]]],[[[92.7229,11.3187],[92.7075,11.2997],[92.6954,11.3099],[92.711,11.3139],[92.721,11.3336],[92.7229,11.3187]]],[[[92.5469,11.3939],[92.5447,11.396],[92.5497,11.3973],[92.5469,11.3939]]],[[[92.5623,11.3957],[92.5551,11.3917],[92.5569,11.3971],[92.5623,11.3957]]],[[[92.6091,11.5045],[92.6084,11.5075],[92.6143,11.5107],[92.6091,11.5045]]],[[[92.6434,11.5133],[92.6431,11.5144],[92.6444,11.5152],[92.6434,11.5133]]],[[[92.639,11.5104],[92.6425,11.4973],[92.6678,11.4893],[92.6845,11.4363],[92.6728,11.4181],[92.6457,11.4067],[92.6872,11.3909],[92.6904,11.3752],[92.6637,11.3539],[92.5983,11.3469],[92.5803,11.3688],[92.5915,11.3792],[92.5863,11.4008],[92.6223,11.4053],[92.6277,11.4349],[92.61,11.4589],[92.6175,11.4923],[92.6316,11.5147],[92.639,11.5104]]],[[[92.6026,11.5336],[92.6046,11.5219],[92.6013,11.5379],[92.6026,11.5336]]],[[[92.5579,11.5411],[92.5653,11.5176],[92.5516,11.5315],[92.5579,11.5411]]],[[[92.6271,11.5432],[92.6262,11.5451],[92.6277,11.5483],[92.6271,11.5432]]],[[[92.6136,11.5533],[92.6171,11.56],[92.6091,11.5315],[92.6035,11.5501],[92.6115,11.5403],[92.611,11.5608],[92.6136,11.5533]]],[[[92.2143,11.5949],[92.2681,11.5859],[92.2679,11.5232],[92.2115,11.5301],[92.2039,11.5872],[92.2143,11.5949]]],[[[92.5649,11.568],[92.564,11.5693],[92.5664,11.5707],[92.5649,11.568]]],[[[92.5749,11.5672],[92.5718,11.5627],[92.5757,11.5709],[92.5749,11.5672]]],[[[92.5928,11.5504],[92.5944,11.5333],[92.5831,11.5488],[92.5928,11.5504]]],[[[92.5774,11.5827],[92.5761,11.5843],[92.5777,11.5851],[92.5774,11.5827]]],[[[92.6134,11.5835],[92.6137,11.5632],[92.6043,11.5744],[92.5996,11.5677],[92.6007,11.5859],[92.6134,11.5835]]],[[[92.5933,11.5893],[92.592,11.5899],[92.5922,11.5907],[92.5933,11.5893]]],[[[92.5415,11.6027],[92.5491,11.588],[92.5681,11.5899],[92.5593,11.5845],[92.5644,11.5736],[92.5289,11.5552],[92.5311,11.5957],[92.5358,11.6067],[92.5415,11.6027]]],[[[92.6973,11.6643],[92.6997,11.6595],[92.6921,11.6608],[92.6973,11.6643]]],[[[92.7652,11.6771],[92.7609,11.6693],[92.7596,11.6771],[92.7652,11.6771]]],[[[92.7246,11.6862],[92.7223,11.688],[92.726,11.6872],[92.7246,11.6862]]],[[[93.08,11.779],[93.0782,11.7864],[93.0849,11.7886],[93.08,11.779]]],[[[93.0171,11.8446],[93.0359,11.8363],[93.062,11.8446],[93.0702,11.8358],[93.0476,11.8131],[93.0145,11.8304],[93.0112,11.8499],[93.0171,11.8446]]],[[[92.5981,11.9139],[92.5952,11.9064],[92.5993,11.9184],[92.5981,11.9139]]],[[[92.6033,11.9294],[92.6017,11.9344],[92.5976,11.9283],[92.5874,11.9739],[92.5954,11.9763],[92.6078,11.9435],[92.603,11.9363],[92.6032,11.9363],[92.6033,11.9294]]],[[[92.7188,11.9347],[92.7236,11.9099],[92.7177,11.9027],[92.7188,11.9347]]],[[[92.722,11.9515],[92.7223,11.9544],[92.7244,11.9542],[92.722,11.9515]]],[[[92.7279,11.9467],[92.7244,11.9419],[92.732,11.96],[92.7279,11.9467]]],[[[92.7409,11.9654],[92.7418,11.9678],[92.7439,11.967],[92.7409,11.9654]]],[[[92.7615,11.9662],[92.7593,11.9494],[92.7351,11.9523],[92.7615,11.9662]]],[[[92.5824,11.9824],[92.5829,11.9782],[92.5809,11.9774],[92.5824,11.9824]]],[[[92.7246,11.9904],[92.7264,11.988],[92.7216,11.983],[92.7246,11.9904]]],[[[92.7253,11.9955],[92.7247,11.9958],[92.7255,11.9963],[92.7253,11.9955]]],[[[92.7752,12.0163],[92.7706,12.0136],[92.77,12.0171],[92.7752,12.0163]]],[[[92.9664,12.0414],[92.9729,12.0486],[92.9939,12.0387],[93.0077,12.0198],[93.0052,12.0024],[93.0526,11.9035],[93.0437,11.8846],[93.0238,11.8899],[92.9943,11.952],[92.9728,11.9488],[92.9596,11.9811],[92.9328,11.9851],[92.925,11.9955],[92.9278,12.0062],[92.9488,12.0139],[92.9637,12.051],[92.9664,12.0414]]],[[[92.9991,12.1064],[93.0047,12.0486],[92.9952,12.0419],[92.9612,12.064],[92.954,12.08],[92.9579,12.1107],[92.9765,12.1088],[92.957,12.119],[92.952,12.1472],[92.9872,12.16],[92.9967,12.1576],[93.0026,12.1123],[92.9787,12.1086],[92.9991,12.1064]]],[[[92.9503,12.0848],[92.9468,12.1168],[92.9557,12.1019],[92.9503,12.0848]]],[[[93.0559,12.12],[93.0531,12.1094],[93.0487,12.1168],[93.0559,12.12]]],[[[93.0975,12.1344],[93.0969,12.1371],[93.0982,12.1368],[93.0975,12.1344]]],[[[93.1196,12.1488],[93.1153,12.1304],[93.109,12.1416],[93.1196,12.1488]]],[[[93.0257,12.1456],[93.0333,12.1256],[93.0231,12.1139],[93.0327,12.1014],[93.0225,12.0987],[93.032,12.1006],[93.05,12.0798],[93.0422,12.0763],[93.0518,12.0691],[93.0438,12.0459],[93.006,12.0795],[93.0036,12.1398],[93.026,12.1667],[93.0257,12.1456]]],[[[92.6815,12.2147],[92.6787,12.2193],[92.6815,12.2241],[92.6815,12.2147]]],[[[92.7554,12.1771],[92.7557,12.1752],[92.734,12.0835],[92.7563,12.0654],[92.747,12.0555],[92.7823,12.0483],[92.7775,12.0243],[92.7604,12.0198],[92.7268,12.0448],[92.737,12.0302],[92.722,12.0262],[92.7363,12.0206],[92.7301,12.015],[92.7491,12.0192],[92.7513,12.0027],[92.7665,12.0115],[92.7684,11.9974],[92.742,11.9955],[92.7535,11.9827],[92.7344,11.9771],[92.7383,11.9974],[92.7212,12.0059],[92.7257,11.9976],[92.7132,11.9939],[92.719,11.9883],[92.7108,11.983],[92.7309,11.9696],[92.7073,11.9742],[92.7149,11.9427],[92.6978,11.9312],[92.7088,11.9288],[92.7129,11.903],[92.7041,11.9035],[92.703,11.9168],[92.6923,11.9011],[92.7197,11.8779],[92.7028,11.8763],[92.6978,11.8659],[92.7023,11.8504],[92.7168,11.8688],[92.7231,11.8595],[92.7088,11.8363],[92.7112,11.8208],[92.7416,11.8816],[92.7355,11.8886],[92.7299,11.8814],[92.7296,11.8971],[92.7422,11.896],[92.7325,11.904],[92.737,11.9184],[92.7428,11.9099],[92.7498,11.9216],[92.7454,11.9323],[92.7513,11.9251],[92.7578,11.9344],[92.7648,11.9224],[92.758,11.9366],[92.783,11.9363],[92.7867,11.9016],[92.7762,11.8979],[92.791,11.8859],[92.7541,11.7014],[92.7444,11.7142],[92.7433,11.691],[92.7164,11.7056],[92.7112,11.6952],[92.7058,11.7011],[92.6982,11.6808],[92.706,11.6699],[92.6919,11.6693],[92.6824,11.6507],[92.6802,11.6619],[92.6611,11.6539],[92.6733,11.6243],[92.6878,11.6211],[92.6678,11.6109],[92.673,11.6067],[92.6815,11.6171],[92.7019,11.6168],[92.6937,11.6528],[92.7058,11.6421],[92.729,11.6571],[92.7155,11.6651],[92.7182,11.6821],[92.7465,11.6765],[92.7554,11.6645],[92.7454,11.6429],[92.7511,11.6093],[92.7392,11.5933],[92.7101,11.4781],[92.6993,11.5099],[92.6655,11.5048],[92.646,11.5219],[92.6436,11.5405],[92.6536,11.5504],[92.633,11.5901],[92.6165,11.5627],[92.608,11.6208],[92.6386,11.6123],[92.6475,11.6456],[92.6349,11.64],[92.6317,11.6616],[92.6306,11.6296],[92.621,11.6381],[92.6074,11.6344],[92.5905,11.6693],[92.5985,11.6902],[92.5924,11.7355],[92.5744,11.7342],[92.5714,11.6995],[92.5605,11.6947],[92.5512,11.72],[92.5514,11.7632],[92.5625,11.772],[92.5514,11.7846],[92.5586,11.8126],[92.5464,11.8203],[92.5521,11.8494],[92.5361,11.8606],[92.5428,11.8358],[92.5313,11.8411],[92.5233,11.827],[92.5144,11.8486],[92.5239,11.871],[92.5335,11.8702],[92.5306,11.8867],[92.5252,11.8747],[92.5274,11.8958],[92.5415,11.903],[92.535,11.9118],[92.5497,11.9264],[92.556,11.9174],[92.5616,11.947],[92.5608,11.9366],[92.5779,11.9272],[92.5668,11.9168],[92.5699,11.9086],[92.58,11.9147],[92.5703,11.8907],[92.5813,11.8955],[92.5839,11.86],[92.595,11.8648],[92.5896,11.8774],[92.5994,11.8968],[92.6007,11.8488],[92.6139,11.831],[92.6084,11.8963],[92.6104,11.915],[92.6119,11.9048],[92.6217,11.9214],[92.6175,11.9467],[92.6071,11.9243],[92.6124,12.0003],[92.6278,12.0432],[92.6186,12.0686],[92.6219,12.1016],[92.6601,12.2153],[92.6644,12.2222],[92.6551,12.1803],[92.6737,12.2179],[92.6748,12.1872],[92.6809,12.192],[92.678,12.2123],[92.6826,12.2062],[92.696,12.239],[92.7088,12.2163],[92.7034,12.1928],[92.7116,12.1899],[92.7008,12.1872],[92.7088,12.1888],[92.7001,12.1547],[92.7114,12.1726],[92.7034,12.1379],[92.7192,12.1798],[92.7554,12.1771]]],[[[93.0717,12.2105],[93.0669,12.1974],[93.0802,12.1984],[93.0854,12.1846],[93.0654,12.1734],[93.0882,12.1806],[93.0776,12.1491],[93.094,12.1432],[93.0808,12.1216],[93.0823,12.1147],[93.091,12.12],[93.081,12.1072],[93.0899,12.0992],[93.0741,12.0838],[93.0565,12.1091],[93.0635,12.1222],[93.0708,12.1182],[93.0665,12.1318],[93.0581,12.1227],[93.0472,12.1278],[93.0483,12.1195],[93.0357,12.1326],[93.0559,12.1939],[93.0717,12.2105]]],[[[93.019,12.2235],[93.0184,12.2243],[93.0199,12.2243],[93.019,12.2235]]],[[[93.0923,12.2187],[93.0927,12.2217],[93.0914,12.2251],[93.0899,12.2262],[93.0912,12.2257],[93.0893,12.231],[93.1023,12.2459],[93.08,12.2257],[93.062,12.2299],[93.0726,12.2614],[93.0819,12.2609],[93.0819,12.2382],[93.0927,12.2393],[93.101,12.2611],[93.104,12.2505],[93.099,12.2048],[93.093,12.2203],[93.0923,12.2187]]],[[[93.0856,12.2289],[93.0817,12.2254],[93.0838,12.2289],[93.0856,12.2289]]],[[[93.0253,12.2745],[93.021,12.2758],[93.0281,12.2798],[93.0253,12.2745]]],[[[93.0719,12.3278],[93.0734,12.3254],[93.0639,12.3257],[93.0719,12.3278]]],[[[93.8996,7.0816],[93.8983,7.0827],[93.9,7.0824],[93.8996,7.0816]]],[[[93.7049,7.2213],[93.7073,7.2083],[93.6982,7.232],[93.7049,7.2213]]],[[[93.8372,7.2403],[93.8356,7.2189],[93.8556,7.2187],[93.8695,7.2048],[93.8803,7.0901],[93.8976,7.0805],[93.9111,7.0253],[93.9247,7.0267],[93.9429,6.9989],[93.9384,6.9925],[93.9228,7.0112],[93.9091,7.0005],[93.9405,6.9544],[93.9141,6.949],[93.903,6.9277],[93.9085,6.9128],[93.8879,6.9032],[93.8953,6.8762],[93.8876,6.8458],[93.9041,6.8352],[93.8968,6.8144],[93.8779,6.7936],[93.8627,6.8154],[93.8445,6.8162],[93.841,6.7794],[93.8239,6.7544],[93.7997,6.7664],[93.8124,6.8176],[93.8025,6.821],[93.7971,6.8106],[93.7803,6.8296],[93.7979,6.8506],[93.7654,6.865],[93.7643,6.8765],[93.7864,6.8792],[93.7697,6.8845],[93.7773,6.8952],[93.7602,6.8968],[93.7576,6.9165],[93.7442,6.9077],[93.7346,6.9242],[93.7444,6.9392],[93.7381,6.9634],[93.7279,6.9608],[93.7171,6.9922],[93.6969,6.993],[93.6932,7.0141],[93.6733,7.0184],[93.6661,7.004],[93.6563,7.0067],[93.6674,7.0232],[93.6535,7.0691],[93.6607,7.0832],[93.6472,7.1011],[93.6648,7.1149],[93.6479,7.1141],[93.6451,7.1272],[93.6657,7.1421],[93.6624,7.1776],[93.6748,7.1912],[93.7225,7.1893],[93.7396,7.2051],[93.745,7.2],[93.7403,7.2088],[93.7493,7.2155],[93.7686,7.2107],[93.7778,7.196],[93.7801,7.2085],[93.7652,7.2136],[93.7819,7.2149],[93.7925,7.2029],[93.7921,7.2147],[93.802,7.2149],[93.7958,7.2355],[93.8372,7.2403]]],[[[93.8345,7.2883],[93.8337,7.2904],[93.8374,7.2917],[93.8345,7.2883]]],[[[93.6199,7.3315],[93.6227,7.3285],[93.6193,7.3259],[93.6199,7.3315]]],[[[93.6824,7.4013],[93.6709,7.4096],[93.6785,7.4117],[93.6824,7.4013]]],[[[93.7561,7.4037],[93.7567,7.3965],[93.7504,7.4005],[93.7561,7.4037]]],[[[93.7001,7.4456],[93.7088,7.4048],[93.7431,7.3773],[93.7431,7.3624],[93.7131,7.3123],[93.6743,7.2931],[93.6568,7.2595],[93.636,7.2445],[93.6175,7.2664],[93.6228,7.2891],[93.6087,7.3115],[93.6312,7.3344],[93.621,7.3387],[93.6206,7.3733],[93.6379,7.3707],[93.6529,7.3837],[93.6561,7.3667],[93.686,7.3965],[93.7069,7.3845],[93.7038,7.4032],[93.691,7.4048],[93.6925,7.4456],[93.7001,7.4456]]],[[[93.6221,7.4784],[93.6219,7.4792],[93.6225,7.4789],[93.6221,7.4784]]],[[[93.6366,7.4787],[93.6401,7.4728],[93.6325,7.4736],[93.6366,7.4787]]],[[[93.6215,7.4792],[93.6197,7.4832],[93.6219,7.4821],[93.6215,7.4792]]],[[[93.5308,7.5264],[93.5293,7.5147],[93.5206,7.5272],[93.5308,7.5264]]],[[[93.3713,8.0219],[93.4001,8.0094],[93.3915,7.9934],[93.4016,7.963],[93.4201,7.9688],[93.4522,7.9366],[93.4641,7.8942],[93.4535,7.8752],[93.443,7.8755],[93.4339,7.8979],[93.4155,7.908],[93.3865,7.9024],[93.368,7.8838],[93.3416,7.8931],[93.3321,7.9192],[93.3533,7.9339],[93.3498,7.9614],[93.3258,7.951],[93.3299,7.9422],[93.3362,7.9467],[93.3333,7.9339],[93.3225,7.9366],[93.3204,7.9256],[93.31,7.9328],[93.3011,7.9622],[93.3184,8.0043],[93.3713,8.0219]]],[[[93.5367,8.0283],[93.5536,8.0259],[93.5725,7.9942],[93.5673,7.9315],[93.5287,7.9598],[93.5311,7.9699],[93.5224,7.9662],[93.4985,7.9864],[93.4968,7.9987],[93.5124,7.9931],[93.5217,8.0075],[93.5219,8.0267],[93.5436,7.9902],[93.5367,8.0283]]],[[[93.4948,8.0491],[93.4935,8.0473],[93.4929,8.0489],[93.4948,8.0491]]],[[[93.5137,8.0649],[93.5133,8.0651],[93.5135,8.0654],[93.5137,8.0649]]],[[[93.5144,8.0694],[93.5142,8.0699],[93.5146,8.0697],[93.5144,8.0694]]],[[[93.5133,8.0753],[93.5128,8.0758],[93.5135,8.0761],[93.5133,8.0753]]],[[[93.579,8.0955],[93.5785,8.0955],[93.5904,8.0507],[93.5835,8.0401],[93.564,8.0633],[93.5664,8.075],[93.5794,8.0646],[93.5603,8.0971],[93.5729,8.1166],[93.5779,8.0977],[93.5785,8.0977],[93.5785,8.0974],[93.5781,8.0974],[93.5785,8.0958],[93.5785,8.0961],[93.579,8.0955]]],[[[93.5796,8.0961],[93.5792,8.0971],[93.5796,8.0985],[93.5796,8.0961]]],[[[93.4548,8.1302],[93.4547,8.1305],[93.4548,8.1307],[93.4548,8.1302]]],[[[93.4541,8.1315],[93.4537,8.1318],[93.4545,8.1318],[93.4541,8.1315]]],[[[93.4573,8.1315],[93.4565,8.1318],[93.4573,8.1318],[93.4573,8.1315]]],[[[93.4565,8.1321],[93.4565,8.1318],[93.4561,8.1318],[93.4565,8.1321]]],[[[93.4535,8.1326],[93.4532,8.1329],[93.4537,8.1337],[93.4535,8.1326]]],[[[93.4561,8.1329],[93.456,8.1334],[93.4563,8.1334],[93.4561,8.1329]]],[[[93.5701,8.1275],[93.5722,8.1195],[93.5616,8.1233],[93.5605,8.1094],[93.553,8.1201],[93.5701,8.1275]]],[[[93.4535,8.1387],[93.4524,8.1387],[93.4539,8.1395],[93.4535,8.1387]]],[[[93.455,8.1398],[93.4543,8.1395],[93.4558,8.1406],[93.455,8.1398]]],[[[93.2293,8.2233],[93.2286,8.2241],[93.2289,8.2246],[93.2293,8.2233]]],[[[93.5118,8.235],[93.5339,8.2286],[93.5358,8.2033],[93.5246,8.1793],[93.5181,8.1779],[93.5252,8.1875],[93.5064,8.1787],[93.5189,8.1899],[93.5035,8.1793],[93.4879,8.1451],[93.502,8.1395],[93.5146,8.1075],[93.5391,8.0833],[93.5317,8.0505],[93.5397,8.0377],[93.5204,8.0523],[93.5142,8.0339],[93.5122,8.043],[93.4975,8.0366],[93.5011,8.0179],[93.4909,7.9995],[93.4775,8.0163],[93.476,8.0467],[93.5007,8.039],[93.4935,8.0579],[93.5016,8.0697],[93.5014,8.0489],[93.517,8.0537],[93.5154,8.0633],[93.528,8.0686],[93.5142,8.075],[93.5252,8.0817],[93.5024,8.0873],[93.5024,8.0761],[93.4754,8.0534],[93.4706,8.0883],[93.4801,8.0926],[93.4669,8.0929],[93.4567,8.1075],[93.4487,8.1355],[93.4573,8.1283],[93.4638,8.1409],[93.4469,8.1451],[93.445,8.1678],[93.4799,8.1974],[93.4827,8.2222],[93.5118,8.235]]],[[[93.2291,8.2617],[93.2406,8.2307],[93.2287,8.2249],[93.2105,8.2494],[93.2183,8.2635],[93.2291,8.2617]]],[[[93.1168,8.3566],[93.1328,8.3459],[93.1164,8.2761],[93.1471,8.2425],[93.1929,8.2182],[93.1905,8.1974],[93.1523,8.2038],[93.112,8.2254],[93.0767,8.2742],[93.0852,8.3401],[93.1168,8.3566]]],[[[93.6317,8.3953],[93.6327,8.3947],[93.6308,8.3953],[93.6317,8.3953]]],[[[93.6427,8.3947],[93.6433,8.3897],[93.6334,8.395],[93.6427,8.3947]]],[[[93.6245,8.3985],[93.6253,8.3977],[93.6245,8.3971],[93.6245,8.3985]]],[[[93.0479,8.4417],[93.0264,8.451],[93.0329,8.4721],[93.0472,8.4603],[93.0479,8.4417]]],[[[93.6076,8.5721],[93.6119,8.5334],[93.6258,8.5243],[93.6317,8.4683],[93.6165,8.4686],[93.6123,8.4241],[93.6095,8.4806],[93.6199,8.4889],[93.6011,8.5457],[93.603,8.578],[93.6076,8.5721]]],[[[93.5989,8.5838],[93.5983,8.5809],[93.5967,8.5833],[93.5989,8.5838]]],[[[92.7925,9.2388],[92.8183,9.2076],[92.8263,9.1401],[92.7934,9.122],[92.7281,9.1268],[92.716,9.1556],[92.7203,9.2185],[92.7635,9.2164],[92.7728,9.2588],[92.7925,9.2388]]]]}}]}